NORAD_CAT_ID,OBJECT_NAME,OBJECT_TYPE,EPOCH,MEAN_MOTION,ECCENTRICITY,INCLINATION,RA_OF_ASC_NODE,ARG_OF_PERICENTER,MEAN_ANOMALY,BSTAR,MEAN_MOTION_DOT,MEAN_MOTION_DDOT,TLE_LINE0,TLE_LINE1,TLE_LINE2,SEMIMAJOR_AXIS,PERIOD,APOGEE,PERIGEE,DECAYED
53591.0,STARLINK-4674,PAYLOAD,2023-03-20 05:19:09,15.08838535,0.0001178,53.2175,77.1466,97.2112,262.9014,0.00075125,0.00011688,0.0,0 STARLINK-4674,1 53591U 22104D   23079.22163307  .00011688  00000-0  75125-3 0  9994,2 53591  53.2175  77.1466 0001178  97.2112 262.9014 15.08838535 31057,6917.885,95.438,540.565,538.935,0.0
53591.0,STARLINK-4674,PAYLOAD,2023-03-20 08:29:55,15.08846356,0.0001132,53.2178,76.552,100.7747,259.3373,0.00088202,0.0001378,0.0,0 STARLINK-4674,1 53591U 22104D   23079.35411201  .00013780  00000-0  88202-3 0  9992,2 53591  53.2178  76.5520 0001132 100.7747 259.3373 15.08846356 32114,6917.861,95.437,540.509,538.943,0.0
53591.0,STARLINK-4674,PAYLOAD,2023-03-20 16:26:51,15.08839108,0.0001075,53.2177,75.064,102.1803,257.931,0.00033034,4.973e-05,0.0,0 STARLINK-4674,1 53591U 22104D   23079.68531323  .00004973  00000-0  33034-3 0  9993,2 53591  53.2177  75.0640 0001075 102.1803 257.9310 15.08839108 31127,6917.883,95.438,540.492,539.004,0.0
53591.0,STARLINK-4674,PAYLOAD,2023-03-21 09:56:05,15.08848125,9.97e-05,53.2171,71.7937,106.6994,253.4107,0.00057855,8.934e-05,0.0,0 STARLINK-4674,1 53591U 22104D   23080.41395098  .00008934  00000-0  57855-3 0  9991,2 53591  53.2171  71.7937 0000997 106.6994 253.4107 15.08848125 32276,6917.856,95.437,540.41,539.031,0.0
53591.0,STARLINK-4674,PAYLOAD,2023-03-22 05:00:43,15.08836287,0.0001175,53.2173,68.2251,107.8927,252.2194,0.00011654,1.567e-05,0.0,0 STARLINK-4674,1 53591U 22104D   23081.20883753  .00001567  00000-0  11654-3 0  9991,2 53591  53.2173  68.2251 0001175 107.8927 252.2194 15.08836287 31353,6917.892,95.438,540.57,538.944,0.0
53591.0,STARLINK-4674,PAYLOAD,2023-03-22 16:08:25,15.08839741,0.0001127,53.2177,66.1437,96.1105,264.0015,0.00013945,1.932e-05,0.0,0 STARLINK-4674,1 53591U 22104D   23081.67251886  .00001932  00000-0  13945-3 0  9999,2 53591  53.2177  66.1437 0001127  96.1105 264.0015 15.08839741 32469,6917.881,95.438,540.526,538.967,0.0
53591.0,STARLINK-4674,PAYLOAD,2023-03-23 08:02:16,15.08855331,0.0001104,53.2173,63.1698,94.9423,265.1696,0.00052011,8.003e-05,0.0,0 STARLINK-4674,1 53591U 22104D   23082.33491428  .00008003  00000-0  52011-3 0  9994,2 53591  53.2173  63.1698 0001104  94.9423 265.1696 15.08855331 31521,6917.834,95.437,540.462,538.935,0.0
53591.0,STARLINK-4674,PAYLOAD,2023-03-24 04:42:17,15.08890933,0.0001064,53.2172,59.3051,75.6028,284.5083,0.0015012,0.00023718,0.0,0 STARLINK-4674,1 53591U 22104D   23083.19603111  .00023718  00000-0  15012-2 0  9992,2 53591  53.2172  59.3051 0001064  75.6028 284.5083 15.08890933 32693,6917.725,95.434,540.326,538.854,0.0
53591.0,STARLINK-4674,PAYLOAD,2023-03-24 15:49:58,15.08867573,0.0001148,53.2174,57.2258,77.9935,282.1185,0.00067274,0.00010443,0.0,0 STARLINK-4674,1 53591U 22104D   23083.65970820  .00010443  00000-0  67274-3 0  9996,2 53591  53.2174  57.2258 0001148  77.9935 282.1185 15.08867573 31720,6917.796,95.436,540.455,538.867,0.0
53591.0,STARLINK-4674,PAYLOAD,2023-03-25 04:33:03,15.08831004,9.89e-05,53.2186,54.8453,79.0075,281.1028,-0.00053543,-8.797e-05,0.0,0 STARLINK-4674,1 53591U 22104D   23084.18962465 -.00008797  00000-0 -53543-3 0  9996,2 53591  53.2186  54.8453 0000989  79.0075 281.1028 15.08831004 31807,6917.908,95.438,540.457,539.089,0.0
53591.0,STARLINK-4674,PAYLOAD,2023-03-26 07:34:38,15.08824871,0.0001133,53.2189,49.7877,90.0393,270.0729,0.00026138,3.873e-05,0.0,0 STARLINK-4674,1 53591U 22104D   23085.31571935  .00003873  00000-0  26138-3 0  9998,2 53591  53.2189  49.7877 0001133  90.0393 270.0729 15.08824871 31978,6917.927,95.439,540.575,539.008,0.0
53591.0,STARLINK-4674,PAYLOAD,2023-03-27 04:14:39,15.08850455,0.0001069,53.2176,45.9244,83.3111,276.8002,0.0012,0.00018867,0.0,0 STARLINK-4674,1 53591U 22104D   23086.17684367  .00018867  00000-0  12000-2 0  9998,2 53591  53.2176  45.9244 0001069  83.3111 276.8002 15.08850455 32102,6917.848,95.437,540.453,538.974,0.0
53591.0,STARLINK-4674,PAYLOAD,2023-03-27 21:43:53,15.08848435,0.0001098,53.2178,42.6533,83.9525,276.1593,0.0004359,6.658e-05,0.0,0 STARLINK-4674,1 53591U 22104D   23086.90548268  .00006658  00000-0  43590-3 0  9992,2 53591  53.2178  42.6533 0001098  83.9525 276.1593 15.08848435 32211,6917.855,95.437,540.479,538.96,0.0
53591.0,STARLINK-4674,PAYLOAD,2023-03-28 07:16:12,15.0886718,9.54e-05,53.2181,40.8706,108.4125,251.6971,0.0010157,0.00015926,0.0,0 STARLINK-4674,1 53591U 22104D   23087.30291680  .00015926  00000-0  10157-2 0  9990,2 53591  53.2181  40.8706 0000954 108.4125 251.6971 15.08867180 32278,6917.797,95.436,540.322,539.002,0.0
53591.0,STARLINK-4674,PAYLOAD,2023-03-28 21:34:40,15.08847962,0.0001341,53.2171,38.1943,106.5612,253.5528,0.00054693,8.429e-05,0.0,0 STARLINK-4674,1 53591U 22104D   23087.89907826  .00008429  00000-0  54693-3 0  9994,2 53591  53.2171  38.1943 0001341 106.5612 253.5528 15.08847962 32366,6917.856,95.437,540.649,538.793,0.0
53591.0,STARLINK-4674,PAYLOAD,2023-03-29 05:31:35,15.08858259,0.000127,53.2173,36.7078,111.9252,248.1875,0.00088732,0.00013869,0.0,0 STARLINK-4674,1 53591U 22104D   23088.23027560  .00013869  00000-0  88732-3 0  9996,2 53591  53.2173  36.7078 0001270 111.9252 248.1875 15.08858259 33459,6917.825,95.436,540.568,538.811,0.0
53591.0,STARLINK-4674,PAYLOAD,2023-03-30 05:22:23,15.08855625,8.45e-05,53.2161,32.2452,88.0869,272.022,0.0010582,0.00016601,0.0,0 STARLINK-4674,1 53591U 22104D   23089.22388001  .00016601  00000-0  10582-2 0  9990,2 53591  53.2161  32.2452 0000845  88.0869 272.0220 15.08855625 32563,6917.833,95.437,540.282,539.113,0.0
53591.0,STARLINK-4674,PAYLOAD,2023-03-31 02:02:24,15.0885655,8.25e-05,53.217,28.3811,90.9687,269.14,0.0021903,0.00034759,0.0,0 STARLINK-4674,1 53591U 22104D   23090.08500803  .00034759  00000-0  21903-2 0  9995,2 53591  53.2170  28.3811 0000825  90.9687 269.1400 15.08856550 32695,6917.83,95.437,540.266,539.124,0.0
53591.0,STARLINK-4674,PAYLOAD,2023-04-01 05:03:57,15.08867609,0.0001116,53.2166,23.3261,103.8278,256.2838,0.0015866,0.00025072,0.0,0 STARLINK-4674,1 53591U 22104D   23091.21108308  .00025072  00000-0  15866-2 0  9994,2 53591  53.2166  23.3261 0001116 103.8278 256.2838 15.08867609 32866,6917.796,95.436,540.433,538.889,0.0
53591.0,STARLINK-4674,PAYLOAD,2023-04-02 04:54:45,15.08846747,0.0001157,53.2173,18.8665,88.2172,271.8953,0.0010575,0.00016585,0.0,0 STARLINK-4674,1 53591U 22104D   23092.20469510  .00016585  00000-0  10575-2 0  9990,2 53591  53.2173  18.8665 0001157  88.2172 271.8953 15.08846747 33014,6917.86,95.437,540.525,538.924,0.0
53591.0,STARLINK-4674,PAYLOAD,2023-04-02 19:13:14,15.08841337,0.0001102,53.2167,16.1889,82.8242,277.2875,0.00055539,8.562e-05,0.0,0 STARLINK-4674,1 53591U 22104D   23092.80085736  .00008562  00000-0  55539-3 0  9996,2 53591  53.2167  16.1889 0001102  82.8242 277.2875 15.08841337 33107,6917.876,95.437,540.504,538.979,0.0
53591.0,STARLINK-4674,PAYLOAD,2023-04-02 22:24:00,15.0884581,0.0001121,53.2166,15.5944,83.8818,276.2302,0.00065655,0.00010178,0.0,0 STARLINK-4674,1 53591U 22104D   23092.93333650  .00010178  00000-0  65655-3 0  9997,2 53591  53.2166  15.5944 0001121  83.8818 276.2302 15.08845810 34163,6917.863,95.437,540.503,538.952,0.0
53591.0,STARLINK-4674,PAYLOAD,2023-04-03 04:45:32,15.0886059,0.0001177,53.2175,14.404,89.8796,270.2331,0.00095186,0.00014902,0.0,0 STARLINK-4674,1 53591U 22104D   23093.19829222  .00014902  00000-0  95186-3 0  9992,2 53591  53.2175  14.4040 0001177  89.8796 270.2331 15.08860590 33167,6917.817,95.436,540.497,538.868,0.0
53591.0,STARLINK-4674,PAYLOAD,2023-04-03 19:04:00,15.08847955,0.000105,53.2174,11.7282,100.3598,259.7512,0.0002106,3.066e-05,0.0,0 STARLINK-4674,1 53591U 22104D   23093.79445185  .00003066  00000-0  21060-3 0  9999,2 53591  53.2174  11.7282 0001050 100.3598 259.7512 15.08847955 33256,6917.856,95.437,540.447,538.995,0.0
53591.0,STARLINK-4674,PAYLOAD,2023-04-04 03:00:55,15.08868385,0.0001248,53.2177,10.2412,107.7849,252.328,0.00098155,0.0001538,0.0,0 STARLINK-4674,1 53591U 22104D   23094.12564619  .00015380  00000-0  98155-3 0  9992,2 53591  53.2177  10.2412 0001248 107.7849 252.3280 15.08868385 33304,6917.794,95.436,540.522,538.795,0.0
53591.0,STARLINK-4674,PAYLOAD,2023-04-04 22:05:33,15.0884673,0.0001352,53.2178,6.6734,112.161,247.9525,0.00070095,0.00010887,0.0,0 STARLINK-4674,1 53591U 22104D   23094.92052991  .00010887  00000-0  70095-3 0  9995,2 53591  53.2178   6.6734 0001352 112.1610 247.9525 15.08846730 34463,6917.86,95.437,540.66,538.79,0.0
53591.0,STARLINK-4674,PAYLOAD,2023-04-05 02:51:43,15.08847269,0.000114,53.2175,5.7811,104.2689,255.843,0.00068987,0.00010711,0.0,0 STARLINK-4674,1 53591U 22104D   23095.11925017  .00010711  00000-0  68987-3 0  9998,2 53591  53.2175   5.7811 0001140 104.2689 255.8430 15.08847269 33458,6917.858,95.437,540.512,538.935,0.0
53591.0,STARLINK-4674,PAYLOAD,2023-04-06 04:17:53,15.08844011,0.0001366,53.217,1.0232,88.0969,272.0179,0.00030122,4.51e-05,0.0,0 STARLINK-4674,1 53591U 22104D   23096.17909168  .00004510  00000-0  30122-3 0  9994,2 53591  53.2170   1.0232 0001366  88.0969 272.0179 15.08844011 33610,6917.868,95.437,540.678,538.788,0.0
53591.0,STARLINK-4674,PAYLOAD,2023-04-07 02:33:17,15.08852211,0.0001183,53.2163,356.8594,98.7791,261.3335,0.00032188,4.84e-05,0.0,0 STARLINK-4674,1 53591U 22104D   23097.10644783  .00004840  00000-0  32188-3 0  9997,2 53591  53.2163 356.8594 0001183  98.7791 261.3335 15.08852211 34798,6917.843,95.437,540.526,538.89,0.0
53591.0,STARLINK-4674,PAYLOAD,2023-04-07 16:51:45,15.08838415,0.0001327,53.216,354.1841,94.2393,265.8751,5.8749e-06,-1.94e-06,0.0,0 STARLINK-4674,1 53591U 22104D   23097.70261406 -.00000194  00000-0  58749-5 0  9992,2 53591  53.2160 354.1841 0001327  94.2393 265.8751 15.08838415 33846,6917.885,95.438,540.668,538.832,0.0
